MMS 1                   
1 40482U 15011A   24273.91667824 -.00001709  00000+0  00000+0 0  9993
2 40482  54.1658   4.4869 9003070 152.1027  43.6361  0.28453520  1303
